{
  "type": "FeatureCollection",
  "features": [
    {
      "type": "Feature",
      "properties": {
        "norad_id": 66619,
        "name": "STARLINK-35951",
        "group": "last-30-days",
        "lat": 9.545238630619451,
        "lon": -5.0242153612065605,
        "alt_km": 417.76215322473854,
        "timestamp": "2025-12-13T18:50:03.173296+00:00",
        "meta_object_name": "STARLINK-35951",
        "meta_object_id": "2025-271C",
        "meta_epoch": "2025-12-13T06:00:02.000160",
        "meta_mean_motion": 15.49256224,
        "meta_eccentricity": 7.785e-05,
        "meta_inclination": 53.1598,
        "meta_ra_of_asc_node": 184.7758,
        "meta_arg_of_pericenter": 153.7545,
        "meta_mean_anomaly": 270.0269,
        "meta_ephemeris_type": 0,
        "meta_classification_type": "U",
        "meta_norad_cat_id": 66619,
        "meta_element_set_no": 999,
        "meta_rev_at_epoch": 432,
        "meta_bstar": 0.0011850778,
        "meta_mean_motion_dot": 0.00065896,
        "meta_mean_motion_ddot": 0,
        "tle_line1": "1 66619U 25271C   25347.25002315  .00065896  00000+0  11851-2 0  9995",
        "tle_line2": "2 66619  53.1598 184.7758 0000778 153.7545 270.0269 15.49256224  4328"
      },
      "geometry": {
        "type": "Point",
        "coordinates": [
          -5.0242153612065605,
          9.545238630619451
        ]
      }
    },
    {
      "type": "Feature",
      "properties": {
        "norad_id": 66620,
        "name": "STARLINK-35936",
        "group": "last-30-days",
        "lat": 14.029793706378179,
        "lon": -8.565569885917489,
        "alt_km": 417.9248016681586,
        "timestamp": "2025-12-13T18:50:03.173306+00:00",
        "meta_object_name": "STARLINK-35936",
        "meta_object_id": "2025-271D",
        "meta_epoch": "2025-12-13T06:00:02.000160",
        "meta_mean_motion": 15.49397948,
        "meta_eccentricity": 5.758e-05,
        "meta_inclination": 53.1599,
        "meta_ra_of_asc_node": 184.7896,
        "meta_arg_of_pericenter": 74.6861,
        "meta_mean_anomaly": 343.3983,
        "meta_ephemeris_type": 0,
        "meta_classification_type": "U",
        "meta_norad_cat_id": 66620,
        "meta_element_set_no": 999,
        "meta_rev_at_epoch": 432,
        "meta_bstar": -0.0032360529,
        "meta_mean_motion_dot": -0.00176956,
        "meta_mean_motion_ddot": 0,
        "tle_line1": "1 66620U 25271D   25347.25002315 -.00176956  00000+0 -32361-2 0  9998",
        "tle_line2": "2 66620  53.1599 184.7896 0000575  74.6861 343.3983 15.49397948  4327"
      },
      "geometry": {
        "type": "Point",
        "coordinates": [
          -8.565569885917489,
          14.029793706378179
        ]
      }
    },
    {
      "type": "Feature",
      "properties": {
        "norad_id": 66621,
        "name": "STARLINK-35847",
        "group": "last-30-days",
        "lat": -28.93995741171638,
        "lon": 26.6060814470264,
        "alt_km": 422.8357715492866,
        "timestamp": "2025-12-13T18:50:03.173316+00:00",
        "meta_object_name": "STARLINK-35847",
        "meta_object_id": "2025-271E",
        "meta_epoch": "2025-12-13T06:00:02.000160",
        "meta_mean_motion": 15.49251226,
        "meta_eccentricity": 5.54e-05,
        "meta_inclination": 53.1601,
        "meta_ra_of_asc_node": 184.6726,
        "meta_arg_of_pericenter": 55.3579,
        "meta_mean_anomaly": 57.6211,
        "meta_ephemeris_type": 0,
        "meta_classification_type": "U",
        "meta_norad_cat_id": 66621,
        "meta_element_set_no": 999,
        "meta_rev_at_epoch": 432,
        "meta_bstar": 0.0011684043,
        "meta_mean_motion_dot": 0.00064943,
        "meta_mean_motion_ddot": 0,
        "tle_line1": "1 66621U 25271E   25347.25002315  .00064943  00000+0  11684-2 0  9994",
        "tle_line2": "2 66621  53.1601 184.6726 0000554  55.3579  57.6211 15.49251226  4329"
      },
      "geometry": {
        "type": "Point",
        "coordinates": [
          26.6060814470264,
          -28.93995741171638
        ]
      }
    },
    {
      "type": "Feature",
      "properties": {
        "norad_id": 66622,
        "name": "STARLINK-35950",
        "group": "last-30-days",
        "lat": 7.962199536120097,
        "lon": -3.803125376275519,
        "alt_km": 418.7116735198497,
        "timestamp": "2025-12-13T18:50:03.173326+00:00",
        "meta_object_name": "STARLINK-35950",
        "meta_object_id": "2025-271F",
        "meta_epoch": "2025-12-13T06:00:02.000160",
        "meta_mean_motion": 15.49387136,
        "meta_eccentricity": 5.425e-05,
        "meta_inclination": 53.1597,
        "meta_ra_of_asc_node": 184.7737,
        "meta_arg_of_pericenter": 91.1905,
        "meta_mean_anomaly": 334.5481,
        "meta_ephemeris_type": 0,
        "meta_classification_type": "U",
        "meta_norad_cat_id": 66622,
        "meta_element_set_no": 999,
        "meta_rev_at_epoch": 432,
        "meta_bstar": -0.002702068,
        "meta_mean_motion_dot": -0.00148311,
        "meta_mean_motion_ddot": 0,
        "tle_line1": "1 66622U 25271F   25347.25002315 -.00148311  00000+0 -27021-2 0  9991",
        "tle_line2": "2 66622  53.1597 184.7737 0000542  91.1905 334.5481 15.49387136  4321"
      },
      "geometry": {
        "type": "Point",
        "coordinates": [
          -3.803125376275519,
          7.962199536120097
        ]
      }
    },
    {
      "type": "Feature",
      "properties": {
        "norad_id": 66623,
        "name": "STARLINK-35920",
        "group": "last-30-days",
        "lat": 4.897011816492355,
        "lon": -1.4760694771456193,
        "alt_km": 419.0918278486488,
        "timestamp": "2025-12-13T18:50:03.173336+00:00",
        "meta_object_name": "STARLINK-35920",
        "meta_object_id": "2025-271G",
        "meta_epoch": "2025-12-13T06:00:02.000160",
        "meta_mean_motion": 15.49365368,
        "meta_eccentricity": 0.00011276,
        "meta_inclination": 53.1599,
        "meta_ra_of_asc_node": 184.7643,
        "meta_arg_of_pericenter": 95.018,
        "meta_mean_anomaly": 334.5909,
        "meta_ephemeris_type": 0,
        "meta_classification_type": "U",
        "meta_norad_cat_id": 66623,
        "meta_element_set_no": 999,
        "meta_rev_at_epoch": 432,
        "meta_bstar": -0.0025524088,
        "meta_mean_motion_dot": -0.00140165,
        "meta_mean_motion_ddot": 0,
        "tle_line1": "1 66623U 25271G   25347.25002315 -.00140165  00000+0 -25524-2 0  9997",
        "tle_line2": "2 66623  53.1599 184.7643 0001127  95.0180 334.5909 15.49365368  4326"
      },
      "geometry": {
        "type": "Point",
        "coordinates": [
          -1.4760694771456193,
          4.897011816492355
        ]
      }
    },
    {
      "type": "Feature",
      "properties": {
        "norad_id": 66624,
        "name": "STARLINK-35927",
        "group": "last-30-days",
        "lat": 6.435851790925124,
        "lon": -2.6399751747403193,
        "alt_km": 419.0125629918766,
        "timestamp": "2025-12-13T18:50:03.173346+00:00",
        "meta_object_name": "STARLINK-35927",
        "meta_object_id": "2025-271H",
        "meta_epoch": "2025-12-13T06:00:02.000160",
        "meta_mean_motion": 15.49386804,
        "meta_eccentricity": 4.784e-05,
        "meta_inclination": 53.1597,
        "meta_ra_of_asc_node": 184.7689,
        "meta_arg_of_pericenter": 81.1677,
        "meta_mean_anomaly": 346.4879,
        "meta_ephemeris_type": 0,
        "meta_classification_type": "U",
        "meta_norad_cat_id": 66624,
        "meta_element_set_no": 999,
        "meta_rev_at_epoch": 432,
        "meta_bstar": -0.0027062567,
        "meta_mean_motion_dot": -0.00148533,
        "meta_mean_motion_ddot": 0,
        "tle_line1": "1 66624U 25271H   25347.25002315 -.00148533  00000+0 -27063-2 0  9995",
        "tle_line2": "2 66624  53.1597 184.7689 0000478  81.1677 346.4879 15.49386804  4326"
      },
      "geometry": {
        "type": "Point",
        "coordinates": [
          -2.6399751747403193,
          6.435851790925124
        ]
      }
    },
    {
      "type": "Feature",
      "properties": {
        "norad_id": 66625,
        "name": "STARLINK-35929",
        "group": "last-30-days",
        "lat": 3.365099866527083,
        "lon": -0.32428200809359164,
        "alt_km": 419.3276074371097,
        "timestamp": "2025-12-13T18:50:03.173358+00:00",
        "meta_object_name": "STARLINK-35929",
        "meta_object_id": "2025-271J",
        "meta_epoch": "2025-12-13T06:00:02.000160",
        "meta_mean_motion": 15.49369486,
        "meta_eccentricity": 0.00010188,
        "meta_inclination": 53.1599,
        "meta_ra_of_asc_node": 184.7598,
        "meta_arg_of_pericenter": 97.2222,
        "meta_mean_anomaly": 334.3043,
        "meta_ephemeris_type": 0,
        "meta_classification_type": "U",
        "meta_norad_cat_id": 66625,
        "meta_element_set_no": 999,
        "meta_rev_at_epoch": 432,
        "meta_bstar": -0.0026818433,
        "meta_mean_motion_dot": -0.0014714,
        "meta_mean_motion_ddot": 0,
        "tle_line1": "1 66625U 25271J   25347.25002315 -.00147140  00000+0 -26818-2 0  9996",
        "tle_line2": "2 66625  53.1599 184.7598 0001018  97.2222 334.3043 15.49369486  4329"
      },
      "geometry": {
        "type": "Point",
        "coordinates": [
          -0.32428200809359164,
          3.365099866527083
        ]
      }
    }
  ]
}